[
  {
    "OBJECT_NAME": "STARLINK-1525",
    "OBJECT_ID": "20055AR",
    "EPOCH": "2025-11-11T06:38:22.516800",
    "MEAN_MOTION": 15.06399161,
    "ECCENTRICITY": 0.0001658,
    "INCLINATION": 53.0541,
    "RA_OF_ASC_NODE": 268.1931,
    "ARG_OF_PERICENTER": 88.2617,
    "MEAN_ANOMALY": 271.8562,
    "EPHEMERIS_TYPE": 0,
    "CLASSIFICATION_TYPE": "U",
    "NORAD_CAT_ID": 46066,
    "ELEMENT_SET_NO": 999,
    "REV_AT_EPOCH": 29145,
    "BSTAR": 0.00044269,
    "MEAN_MOTION_DOT": 6.318e-05,
    "MEAN_MOTION_DDOT": 0.0,
    "TLE_LINE1": "1 46066U 20055AR  25315.27664950  .00006318  00000+0  44269-3 0  9994",
    "TLE_LINE2": "2 46066  53.0541 268.1931 0001658  88.2617 271.8562 15.06399161291457",
    "COMMENT": "Grouped by shell and plane from TLE"
  },
  {
    "OBJECT_NAME": "STARLINK-1536",
    "OBJECT_ID": "20055AV",
    "EPOCH": "2025-11-11T04:30:59.669568",
    "MEAN_MOTION": 15.06386342,
    "ECCENTRICITY": 0.0001471,
    "INCLINATION": 53.0549,
    "RA_OF_ASC_NODE": 268.5924,
    "ARG_OF_PERICENTER": 82.5339,
    "MEAN_ANOMALY": 277.5818,
    "EPHEMERIS_TYPE": 0,
    "CLASSIFICATION_TYPE": "U",
    "NORAD_CAT_ID": 46070,
    "ELEMENT_SET_NO": 999,
    "REV_AT_EPOCH": 29145,
    "BSTAR": 9.1997e-05,
    "MEAN_MOTION_DOT": 1.089e-05,
    "MEAN_MOTION_DDOT": 0.0,
    "TLE_LINE1": "1 46070U 20055AV  25315.18819062  .00001089  00000+0  91997-4 0  9996",
    "TLE_LINE2": "2 46070  53.0549 268.5924 0001471  82.5339 277.5818 15.06386342291451",
    "COMMENT": "Grouped by shell and plane from TLE"
  },
  {
    "OBJECT_NAME": "STARLINK-1542",
    "OBJECT_ID": "20055AY",
    "EPOCH": "2025-11-11T04:20:22.028064",
    "MEAN_MOTION": 15.06406943,
    "ECCENTRICITY": 0.000236,
    "INCLINATION": 53.0547,
    "RA_OF_ASC_NODE": 268.6288,
    "ARG_OF_PERICENTER": 102.9834,
    "MEAN_ANOMALY": 257.1418,
    "EPHEMERIS_TYPE": 0,
    "CLASSIFICATION_TYPE": "U",
    "NORAD_CAT_ID": 46073,
    "ELEMENT_SET_NO": 999,
    "REV_AT_EPOCH": 29144,
    "BSTAR": 0.00047278,
    "MEAN_MOTION_DOT": 6.769e-05,
    "MEAN_MOTION_DDOT": 0.0,
    "TLE_LINE1": "1 46073U 20055AY  25315.18081051  .00006769  00000+0  47278-3 0  9990",
    "TLE_LINE2": "2 46073  53.0547 268.6288 0002360 102.9834 257.1418 15.06406943291440",
    "COMMENT": "Grouped by shell and plane from TLE"
  },
  {
    "OBJECT_NAME": "STARLINK-1549",
    "OBJECT_ID": "20055AZ",
    "EPOCH": "2025-11-11T03:59:08.411712",
    "MEAN_MOTION": 15.06387979,
    "ECCENTRICITY": 0.0001442,
    "INCLINATION": 53.0548,
    "RA_OF_ASC_NODE": 268.6857,
    "ARG_OF_PERICENTER": 102.8276,
    "MEAN_ANOMALY": 257.2874,
    "EPHEMERIS_TYPE": 0,
    "CLASSIFICATION_TYPE": "U",
    "NORAD_CAT_ID": 46074,
    "ELEMENT_SET_NO": 999,
    "REV_AT_EPOCH": 29143,
    "BSTAR": 9.4064e-07,
    "MEAN_MOTION_DOT": -2.67e-06,
    "MEAN_MOTION_DDOT": 0.0,
    "TLE_LINE1": "1 46074U 20055AZ  25315.16606958 -.00000267  00000+0  94064-6 0  9994",
    "TLE_LINE2": "2 46074  53.0548 268.6857 0001442 102.8276 257.2874 15.06387979291436",
    "COMMENT": "Grouped by shell and plane from TLE"
  },
  {
    "OBJECT_NAME": "STARLINK-1551",
    "OBJECT_ID": "20055BA",
    "EPOCH": "2025-11-11T04:36:18.209088",
    "MEAN_MOTION": 15.06405158,
    "ECCENTRICITY": 0.000175,
    "INCLINATION": 53.0535,
    "RA_OF_ASC_NODE": 268.5719,
    "ARG_OF_PERICENTER": 88.5481,
    "MEAN_ANOMALY": 271.5708,
    "EPHEMERIS_TYPE": 0,
    "CLASSIFICATION_TYPE": "U",
    "NORAD_CAT_ID": 46075,
    "ELEMENT_SET_NO": 999,
    "REV_AT_EPOCH": 29144,
    "BSTAR": 0.00044349,
    "MEAN_MOTION_DOT": 6.331e-05,
    "MEAN_MOTION_DDOT": 0.0,
    "TLE_LINE1": "1 46075U 20055BA  25315.19187742  .00006331  00000+0  44349-3 0  9998",
    "TLE_LINE2": "2 46075  53.0535 268.5719 0001750  88.5481 271.5708 15.06405158291445",
    "COMMENT": "Grouped by shell and plane from TLE"
  },
  {
    "OBJECT_NAME": "STARLINK-1552",
    "OBJECT_ID": "20055BB",
    "EPOCH": "2025-11-11T06:48:58.592736",
    "MEAN_MOTION": 15.06403201,
    "ECCENTRICITY": 0.0001716,
    "INCLINATION": 53.0558,
    "RA_OF_ASC_NODE": 268.158,
    "ARG_OF_PERICENTER": 118.4569,
    "MEAN_ANOMALY": 241.6593,
    "EPHEMERIS_TYPE": 0,
    "CLASSIFICATION_TYPE": "U",
    "NORAD_CAT_ID": 46076,
    "ELEMENT_SET_NO": 999,
    "REV_AT_EPOCH": 29144,
    "BSTAR": 0.00014036000000000002,
    "MEAN_MOTION_DOT": 1.81e-05,
    "MEAN_MOTION_DDOT": 0.0,
    "TLE_LINE1": "1 46076U 20055BB  25315.28401149  .00001810  00000+0  14036-3 0  9996",
    "TLE_LINE2": "2 46076  53.0558 268.1580 0001716 118.4569 241.6593 15.06403201291442",
    "COMMENT": "Grouped by shell and plane from TLE"
  },
  {
    "OBJECT_NAME": "STARLINK-1559",
    "OBJECT_ID": "20055BC",
    "EPOCH": "2025-11-11T02:58:13.756512",
    "MEAN_MOTION": 15.18995809,
    "ECCENTRICITY": 0.0008382,
    "INCLINATION": 53.0482,
    "RA_OF_ASC_NODE": 261.0772,
    "ARG_OF_PERICENTER": 42.1587,
    "MEAN_ANOMALY": 318.0051,
    "EPHEMERIS_TYPE": 0,
    "CLASSIFICATION_TYPE": "U",
    "NORAD_CAT_ID": 46077,
    "ELEMENT_SET_NO": 999,
    "REV_AT_EPOCH": 29150,
    "BSTAR": 0.0030012,
    "MEAN_MOTION_DOT": 0.00063864,
    "MEAN_MOTION_DDOT": 0.0,
    "TLE_LINE1": "1 46077U 20055BC  25315.12377033  .00063864  00000+0  30012-2 0  9992",
    "TLE_LINE2": "2 46077  53.0482 261.0772 0008382  42.1587 318.0051 15.18995809291501",
    "COMMENT": "Grouped by shell and plane from TLE"
  },
  {
    "OBJECT_NAME": "STARLINK-1566",
    "OBJECT_ID": "20055BE",
    "EPOCH": "2025-11-11T04:04:26.450976",
    "MEAN_MOTION": 15.06389892,
    "ECCENTRICITY": 0.0001295,
    "INCLINATION": 53.0539,
    "RA_OF_ASC_NODE": 268.6726,
    "ARG_OF_PERICENTER": 75.373,
    "MEAN_ANOMALY": 284.7402,
    "EPHEMERIS_TYPE": 0,
    "CLASSIFICATION_TYPE": "U",
    "NORAD_CAT_ID": 46079,
    "ELEMENT_SET_NO": 999,
    "REV_AT_EPOCH": 29144,
    "BSTAR": 3.0933000000000004e-05,
    "MEAN_MOTION_DOT": 1.79e-06,
    "MEAN_MOTION_DDOT": 0.0,
    "TLE_LINE1": "1 46079U 20055BE  25315.16975059  .00000179  00000+0  30933-4 0  9994",
    "TLE_LINE2": "2 46079  53.0539 268.6726 0001295  75.3730 284.7402 15.06389892291440",
    "COMMENT": "Grouped by shell and plane from TLE"
  },
  {
    "OBJECT_NAME": "STARLINK-1578",
    "OBJECT_ID": "20055BH",
    "EPOCH": "2025-11-11T06:01:13.041696",
    "MEAN_MOTION": 15.06398635,
    "ECCENTRICITY": 0.0001631,
    "INCLINATION": 53.0558,
    "RA_OF_ASC_NODE": 268.3115,
    "ARG_OF_PERICENTER": 94.5325,
    "MEAN_ANOMALY": 265.5851,
    "EPHEMERIS_TYPE": 0,
    "CLASSIFICATION_TYPE": "U",
    "NORAD_CAT_ID": 46082,
    "ELEMENT_SET_NO": 999,
    "REV_AT_EPOCH": 29145,
    "BSTAR": 0.00024625,
    "MEAN_MOTION_DOT": 3.388e-05,
    "MEAN_MOTION_DDOT": 0.0,
    "TLE_LINE1": "1 46082U 20055BH  25315.25084539  .00003388  00000+0  24625-3 0  9997",
    "TLE_LINE2": "2 46082  53.0558 268.3115 0001631  94.5325 265.5851 15.06398635291452",
    "COMMENT": "Grouped by shell and plane from TLE"
  },
  {
    "OBJECT_NAME": "STARLINK-1579",
    "OBJECT_ID": "20055BJ",
    "EPOCH": "2025-11-11T06:52:55.606080",
    "MEAN_MOTION": 15.06402769,
    "ECCENTRICITY": 0.0001504,
    "INCLINATION": 53.0554,
    "RA_OF_ASC_NODE": 268.1371,
    "ARG_OF_PERICENTER": 100.9355,
    "MEAN_ANOMALY": 259.1803,
    "EPHEMERIS_TYPE": 0,
    "CLASSIFICATION_TYPE": "U",
    "NORAD_CAT_ID": 46083,
    "ELEMENT_SET_NO": 999,
    "REV_AT_EPOCH": 29145,
    "BSTAR": 0.0,
    "MEAN_MOTION_DOT": -1.147e-05,
    "MEAN_MOTION_DDOT": 0.0,
    "TLE_LINE1": "1 46083U 20055BJ  25315.28675470 -.00001147  00000+0 -58110-4 0  9991",
    "TLE_LINE2": "2 46083  53.0554 268.1371 0001504 100.9355 259.1803 15.06402769291455",
    "COMMENT": "Grouped by shell and plane from TLE"
  },
  {
    "OBJECT_NAME": "STARLINK-2565",
    "OBJECT_ID": "21036E",
    "EPOCH": "2025-11-11T06:27:45.882720",
    "MEAN_MOTION": 15.06403414,
    "ECCENTRICITY": 0.000136,
    "INCLINATION": 53.0544,
    "RA_OF_ASC_NODE": 268.2251,
    "ARG_OF_PERICENTER": 87.3161,
    "MEAN_ANOMALY": 272.7984,
    "EPHEMERIS_TYPE": 0,
    "CLASSIFICATION_TYPE": "U",
    "NORAD_CAT_ID": 48280,
    "ELEMENT_SET_NO": 999,
    "REV_AT_EPOCH": 25025,
    "BSTAR": 0.00069459,
    "MEAN_MOTION_DOT": 0.0001008,
    "MEAN_MOTION_DDOT": 0.0,
    "TLE_LINE1": "1 48280U 21036E   25315.26928105  .00010080  00000+0  69459-3 0  9997",
    "TLE_LINE2": "2 48280  53.0544 268.2251 0001360  87.3161 272.7984 15.06403414250258",
    "COMMENT": "Grouped by shell and plane from TLE"
  },
  {
    "OBJECT_NAME": "STARLINK-2538",
    "OBJECT_ID": "21036AA",
    "EPOCH": "2025-11-11T05:37:59.818368",
    "MEAN_MOTION": 15.06387208,
    "ECCENTRICITY": 0.000154,
    "INCLINATION": 53.0546,
    "RA_OF_ASC_NODE": 263.3868,
    "ARG_OF_PERICENTER": 85.745,
    "MEAN_ANOMALY": 274.3715,
    "EPHEMERIS_TYPE": 0,
    "CLASSIFICATION_TYPE": "U",
    "NORAD_CAT_ID": 48300,
    "ELEMENT_SET_NO": 999,
    "REV_AT_EPOCH": 25032,
    "BSTAR": 0.0,
    "MEAN_MOTION_DOT": -1.581e-05,
    "MEAN_MOTION_DDOT": 0.0,
    "TLE_LINE1": "1 48300U 21036AA  25315.23472012 -.00001581  00000+0 -87293-4 0  9993",
    "TLE_LINE2": "2 48300  53.0546 263.3868 0001540  85.7450 274.3715 15.06387208250326",
    "COMMENT": "Grouped by shell and plane from TLE"
  },
  {
    "OBJECT_NAME": "STARLINK-2537",
    "OBJECT_ID": "21036AB",
    "EPOCH": "2025-11-11T05:32:40.907328",
    "MEAN_MOTION": 15.06396761,
    "ECCENTRICITY": 0.0001266,
    "INCLINATION": 53.0545,
    "RA_OF_ASC_NODE": 263.4003,
    "ARG_OF_PERICENTER": 89.1139,
    "MEAN_ANOMALY": 270.9995,
    "EPHEMERIS_TYPE": 0,
    "CLASSIFICATION_TYPE": "U",
    "NORAD_CAT_ID": 48301,
    "ELEMENT_SET_NO": 999,
    "REV_AT_EPOCH": 25031,
    "BSTAR": 0.00019515,
    "MEAN_MOTION_DOT": 2.626e-05,
    "MEAN_MOTION_DDOT": 0.0,
    "TLE_LINE1": "1 48301U 21036AB  25315.23102902  .00002626  00000+0  19515-3 0  9992",
    "TLE_LINE2": "2 48301  53.0545 263.4003 0001266  89.1139 270.9995 15.06396761250310",
    "COMMENT": "Grouped by shell and plane from TLE"
  }
]